{
    "links": {
        "self": "http://www.neowsapp.com/rest/v1/neo/3797450?api_key=iIulBulltgU6a56xZRHN4H3l9WmuAYTsLGpBGhQ2"
    },
    "id": "3797450",
    "neo_reference_id": "3797450",
    "name": "(2018 AK2)",
    "designation": "2018 AK2",
    "nasa_jpl_url": "http://ssd.jpl.nasa.gov/sbdb.cgi?sstr=3797450",
    "absolute_magnitude_h": 23.7,
    "estimated_diameter": {
        "kilometers": {
            "estimated_diameter_min": 0.0483676488,
            "estimated_diameter_max": 0.1081533507
        },
        "meters": {
            "estimated_diameter_min": 48.3676488219,
            "estimated_diameter_max": 108.1533506775
        },
        "miles": {
            "estimated_diameter_min": 0.0300542543,
            "estimated_diameter_max": 0.0672033557
        },
        "feet": {
            "estimated_diameter_min": 158.6865169607,
            "estimated_diameter_max": 354.8338390368
        }
    },
    "is_potentially_hazardous_asteroid": false,
    "close_approach_data": [
        {
            "close_approach_date": "2014-07-25",
            "close_approach_date_full": "2014-Jul-25 07:23",
            "epoch_date_close_approach": 1406272980000,
            "relative_velocity": {
                "kilometers_per_second": "11.1007778075",
                "kilometers_per_hour": "39962.8001070648",
                "miles_per_hour": "24831.329877637"
            },
            "miss_distance": {
                "astronomical": "0.3174506551",
                "lunar": "123.4883048339",
                "kilometers": "47489941.833064637",
                "miles": "29508881.5100485106"
            },
            "orbiting_body": "Earth"
        },
        {
            "close_approach_date": "2017-08-24",
            "close_approach_date_full": "2017-Aug-24 08:02",
            "epoch_date_close_approach": 1503561720000,
            "relative_velocity": {
                "kilometers_per_second": "13.5290721669",
                "kilometers_per_hour": "48704.6598008962",
                "miles_per_hour": "30263.1815301735"
            },
            "miss_distance": {
                "astronomical": "0.4328713243",
                "lunar": "168.3869451527",
                "kilometers": "64756628.099359241",
                "miles": "40237902.8445938858"
            },
            "orbiting_body": "Earth"
        },
        {
            "close_approach_date": "2018-01-10",
            "close_approach_date_full": "2018-Jan-10 14:09",
            "epoch_date_close_approach": 1515593340000,
            "relative_velocity": {
                "kilometers_per_second": "11.4213982083",
                "kilometers_per_hour": "41117.0335498753",
                "miles_per_hour": "25548.5256521434"
            },
            "miss_distance": {
                "astronomical": "0.1892719814",
                "lunar": "73.6268007646",
                "kilometers": "28314685.268119618",
                "miles": "17593929.5842540084"
            },
            "orbiting_body": "Earth"
        }
    ],
    "orbital_data": {
        "orbit_id": "8",
        "orbit_determination_date": "2018-02-10 07:09:35",
        "first_observation_date": "2018-01-10",
        "last_observation_date": "2018-01-24",
        "data_arc_in_days": 14,
        "observations_used": 51,
        "orbit_uncertainty": "8",
        "minimum_orbit_intersection": ".183634",
        "jupiter_tisserand_invariant": "4.977",
        "epoch_osculation": "2458132.5",
        "eccentricity": ".1544238066587076",
        "semi_major_axis": "1.279620975531018",
        "inclination": "21.70997857198966",
        "ascending_node_longitude": "116.8481692042363",
        "orbital_period": "528.7135643012533",
        "perihelion_distance": "1.082017033409189",
        "perihelion_argument": "292.2887040815685",
        "aphelion_distance": "1.477224917652846",
        "perihelion_time": "2458059.203699937775",
        "mean_anomaly": "49.90730294062639",
        "mean_motion": ".6808979839126602",
        "equinox": "J2000",
        "orbit_class": {
            "orbit_class_type": "AMO",
            "orbit_class_description": "Near-Earth asteroid orbits similar to that of 1221 Amor",
            "orbit_class_range": "1.017 AU < q (perihelion) < 1.3 AU"
        }
    },
    "is_sentry_object": false
}